{
  "type": "FeatureCollection",
  "features": [
    {
      "type": "Feature",
      "properties": {
        "norad_id": 66608,
        "name": "STARLINK-36036",
        "group": "last-30-days",
        "lat": -39.55817046341466,
        "lon": 134.68245405232165,
        "alt_km": 333.9043337676994,
        "timestamp": "2025-12-02T17:49:10.801096+00:00",
        "meta_object_name": "STARLINK-36036",
        "meta_object_id": "2025-270W",
        "meta_epoch": "2025-12-02T12:00:05.998752",
        "meta_mean_motion": 15.80482231,
        "meta_eccentricity": 0.0001672,
        "meta_inclination": 42.9993,
        "meta_ra_of_asc_node": 253.7284,
        "meta_arg_of_pericenter": 259.3724,
        "meta_mean_anomaly": 49.1445,
        "meta_ephemeris_type": 0,
        "meta_classification_type": "U",
        "meta_norad_cat_id": 66608,
        "meta_element_set_no": 999,
        "meta_rev_at_epoch": 259,
        "meta_bstar": -0.010527,
        "meta_mean_motion_dot": -0.01813381,
        "meta_mean_motion_ddot": 0,
        "tle_line1": "1 66608U 25270W   25336.50006943 -.01813381  00000+0 -10527-1 0  9990",
        "tle_line2": "2 66608  42.9993 253.7284 0001672 259.3724  49.1445 15.80482231  2590"
      },
      "geometry": {
        "type": "Point",
        "coordinates": [
          134.68245405232165,
          -39.55817046341466
        ]
      }
    },
    {
      "type": "Feature",
      "properties": {
        "norad_id": 66609,
        "name": "STARLINK-36034",
        "group": "last-30-days",
        "lat": -40.13574249891042,
        "lon": 137.04486161589375,
        "alt_km": 333.8967211609479,
        "timestamp": "2025-12-02T17:49:10.801106+00:00",
        "meta_object_name": "STARLINK-36034",
        "meta_object_id": "2025-270X",
        "meta_epoch": "2025-12-02T12:00:05.998752",
        "meta_mean_motion": 15.80499154,
        "meta_eccentricity": 0.0001679,
        "meta_inclination": 42.9992,
        "meta_ra_of_asc_node": 253.7236,
        "meta_arg_of_pericenter": 261.7784,
        "meta_mean_anomaly": 48.6364,
        "meta_ephemeris_type": 0,
        "meta_classification_type": "U",
        "meta_norad_cat_id": 66609,
        "meta_element_set_no": 999,
        "meta_rev_at_epoch": 259,
        "meta_bstar": -0.010583,
        "meta_mean_motion_dot": -0.01823116,
        "meta_mean_motion_ddot": 0,
        "tle_line1": "1 66609U 25270X   25336.50006943 -.01823116  00000+0 -10583-1 0  9990",
        "tle_line2": "2 66609  42.9992 253.7236 0001679 261.7784  48.6364 15.80499154  2593"
      },
      "geometry": {
        "type": "Point",
        "coordinates": [
          137.04486161589375,
          -40.13574249891042
        ]
      }
    },
    {
      "type": "Feature",
      "properties": {
        "norad_id": 66610,
        "name": "STARLINK-35680",
        "group": "last-30-days",
        "lat": -40.686590064705236,
        "lon": 139.55309536187474,
        "alt_km": 333.85559071677835,
        "timestamp": "2025-12-02T17:49:10.801120+00:00",
        "meta_object_name": "STARLINK-35680",
        "meta_object_id": "2025-270Y",
        "meta_epoch": "2025-12-02T12:00:05.998752",
        "meta_mean_motion": 15.80496796,
        "meta_eccentricity": 0.0001775,
        "meta_inclination": 42.9991,
        "meta_ra_of_asc_node": 253.7182,
        "meta_arg_of_pericenter": 258.6137,
        "meta_mean_anomaly": 53.798,
        "meta_ephemeris_type": 0,
        "meta_classification_type": "U",
        "meta_norad_cat_id": 66610,
        "meta_element_set_no": 999,
        "meta_rev_at_epoch": 286,
        "meta_bstar": -0.010638,
        "meta_mean_motion_dot": -0.01831332,
        "meta_mean_motion_ddot": 0,
        "tle_line1": "1 66610U 25270Y   25336.50006943 -.01831332  00000+0 -10638-1 0  9992",
        "tle_line2": "2 66610  42.9991 253.7182 0001775 258.6137  53.7980 15.80496796  2868"
      },
      "geometry": {
        "type": "Point",
        "coordinates": [
          139.55309536187474,
          -40.686590064705236
        ]
      }
    },
    {
      "type": "Feature",
      "properties": {
        "norad_id": 66611,
        "name": "STARLINK-35583",
        "group": "last-30-days",
        "lat": -41.166590006289454,
        "lon": 142.01560074692438,
        "alt_km": 334.00448246132964,
        "timestamp": "2025-12-02T17:49:10.801130+00:00",
        "meta_object_name": "STARLINK-35583",
        "meta_object_id": "2025-270Z",
        "meta_epoch": "2025-12-02T12:00:05.998752",
        "meta_mean_motion": 15.80496847,
        "meta_eccentricity": 0.0001597,
        "meta_inclination": 42.9992,
        "meta_ra_of_asc_node": 253.7133,
        "meta_arg_of_pericenter": 265.1924,
        "meta_mean_anomaly": 49.1472,
        "meta_ephemeris_type": 0,
        "meta_classification_type": "U",
        "meta_norad_cat_id": 66611,
        "meta_element_set_no": 999,
        "meta_rev_at_epoch": 286,
        "meta_bstar": -0.010597,
        "meta_mean_motion_dot": -0.01824962,
        "meta_mean_motion_ddot": 0,
        "tle_line1": "1 66611U 25270Z   25336.50006943 -.01824962  00000+0 -10597-1 0  9998",
        "tle_line2": "2 66611  42.9992 253.7133 0001597 265.1924  49.1472 15.80496847  2867"
      },
      "geometry": {
        "type": "Point",
        "coordinates": [
          142.01560074692438,
          -41.166590006289454
        ]
      }
    },
    {
      "type": "Feature",
      "properties": {
        "norad_id": 66612,
        "name": "STARLINK-36039",
        "group": "last-30-days",
        "lat": -41.63444207069166,
        "lon": 144.77602428568446,
        "alt_km": 333.98723268872527,
        "timestamp": "2025-12-02T17:49:10.801140+00:00",
        "meta_object_name": "STARLINK-36039",
        "meta_object_id": "2025-270AA",
        "meta_epoch": "2025-12-02T12:00:05.998752",
        "meta_mean_motion": 15.80469052,
        "meta_eccentricity": 0.0001766,
        "meta_inclination": 42.999,
        "meta_ra_of_asc_node": 253.7078,
        "meta_arg_of_pericenter": 261.2433,
        "meta_mean_anomaly": 55.2518,
        "meta_ephemeris_type": 0,
        "meta_classification_type": "U",
        "meta_norad_cat_id": 66612,
        "meta_element_set_no": 999,
        "meta_rev_at_epoch": 275,
        "meta_bstar": -0.010692,
        "meta_mean_motion_dot": -0.0183745,
        "meta_mean_motion_ddot": 0,
        "tle_line1": "1 66612U 25270AA  25336.50006943 -.01837450  00000+0 -10692-1 0  9991",
        "tle_line2": "2 66612  42.9990 253.7078 0001766 261.2433  55.2518 15.80469052  2759"
      },
      "geometry": {
        "type": "Point",
        "coordinates": [
          144.77602428568446,
          -41.63444207069166
        ]
      }
    },
    {
      "type": "Feature",
      "properties": {
        "norad_id": 66613,
        "name": "STARLINK-36037",
        "group": "last-30-days",
        "lat": -42.01936072226777,
        "lon": 147.45168233562583,
        "alt_km": 334.0715421280438,
        "timestamp": "2025-12-02T17:49:10.801150+00:00",
        "meta_object_name": "STARLINK-36037",
        "meta_object_id": "2025-270AB",
        "meta_epoch": "2025-12-02T12:00:05.998752",
        "meta_mean_motion": 15.80459365,
        "meta_eccentricity": 0.0001743,
        "meta_inclination": 42.9991,
        "meta_ra_of_asc_node": 253.7027,
        "meta_arg_of_pericenter": 263.5075,
        "meta_mean_anomaly": 55.0376,
        "meta_ephemeris_type": 0,
        "meta_classification_type": "U",
        "meta_norad_cat_id": 66613,
        "meta_element_set_no": 999,
        "meta_rev_at_epoch": 275,
        "meta_bstar": -0.010794,
        "meta_mean_motion_dot": -0.01851978,
        "meta_mean_motion_ddot": 0,
        "tle_line1": "1 66613U 25270AB  25336.50006943 -.01851978  00000+0 -10794-1 0  9996",
        "tle_line2": "2 66613  42.9991 253.7027 0001743 263.5075  55.0376 15.80459365  2753"
      },
      "geometry": {
        "type": "Point",
        "coordinates": [
          147.45168233562583,
          -42.01936072226777
        ]
      }
    },
    {
      "type": "Feature",
      "properties": {
        "norad_id": 66614,
        "name": "STARLINK-36040",
        "group": "last-30-days",
        "lat": -42.579820027599425,
        "lon": 152.66538184764454,
        "alt_km": 334.0638485863328,
        "timestamp": "2025-12-02T17:49:10.801160+00:00",
        "meta_object_name": "STARLINK-36040",
        "meta_object_id": "2025-270AC",
        "meta_epoch": "2025-12-02T12:00:05.998752",
        "meta_mean_motion": 15.80469364,
        "meta_eccentricity": 0.000177,
        "meta_inclination": 42.999,
        "meta_ra_of_asc_node": 253.6928,
        "meta_arg_of_pericenter": 257.7368,
        "meta_mean_anomaly": 64.7083,
        "meta_ephemeris_type": 0,
        "meta_classification_type": "U",
        "meta_norad_cat_id": 66614,
        "meta_element_set_no": 999,
        "meta_rev_at_epoch": 259,
        "meta_bstar": -0.010868,
        "meta_mean_motion_dot": -0.01863871,
        "meta_mean_motion_ddot": 0,
        "tle_line1": "1 66614U 25270AC  25336.50006943 -.01863871  00000+0 -10868-1 0  9994",
        "tle_line2": "2 66614  42.9990 253.6928 0001770 257.7368  64.7083 15.80469364  2596"
      },
      "geometry": {
        "type": "Point",
        "coordinates": [
          152.66538184764454,
          -42.579820027599425
        ]
      }
    }
  ]
}